{
    "links": {
        "self": "http://www.neowsapp.com/rest/v1/neo/3742051?api_key=iIulBulltgU6a56xZRHN4H3l9WmuAYTsLGpBGhQ2"
    },
    "id": "3742051",
    "neo_reference_id": "3742051",
    "name": "(2016 CY30)",
    "designation": "2016 CY30",
    "nasa_jpl_url": "http://ssd.jpl.nasa.gov/sbdb.cgi?sstr=3742051",
    "absolute_magnitude_h": 24.6,
    "estimated_diameter": {
        "kilometers": {
            "estimated_diameter_min": 0.0319561887,
            "estimated_diameter_max": 0.0714562102
        },
        "meters": {
            "estimated_diameter_min": 31.9561886721,
            "estimated_diameter_max": 71.4562101727
        },
        "miles": {
            "estimated_diameter_min": 0.0198566489,
            "estimated_diameter_max": 0.0444008168
        },
        "feet": {
            "estimated_diameter_min": 104.8431420431,
            "estimated_diameter_max": 234.436392583
        }
    },
    "is_potentially_hazardous_asteroid": false,
    "close_approach_data": [
        {
            "close_approach_date": "2016-02-23",
            "close_approach_date_full": "2016-Feb-23 18:11",
            "epoch_date_close_approach": 1456251060000,
            "relative_velocity": {
                "kilometers_per_second": "14.2935033284",
                "kilometers_per_hour": "51456.6119821104",
                "miles_per_hour": "31973.1375952174"
            },
            "miss_distance": {
                "astronomical": "0.0336683129",
                "lunar": "13.0969737181",
                "kilometers": "5036707.896333523",
                "miles": "3129665.1622796974"
            },
            "orbiting_body": "Earth"
        }
    ],
    "orbital_data": {
        "orbit_id": "11",
        "orbit_determination_date": "2018-02-10 07:07:28",
        "first_observation_date": "2016-02-05",
        "last_observation_date": "2016-02-26",
        "data_arc_in_days": 21,
        "observations_used": 48,
        "orbit_uncertainty": "8",
        "minimum_orbit_intersection": ".0095518",
        "jupiter_tisserand_invariant": "3.424",
        "epoch_osculation": "2457426.5",
        "eccentricity": ".6016527051918336",
        "semi_major_axis": "2.170915054212714",
        "inclination": "5.354429325470926",
        "ascending_node_longitude": "151.9563217794048",
        "orbital_period": "1168.322316231568",
        "perihelion_distance": ".8647781391039585",
        "perihelion_argument": "54.65799519164055",
        "aphelion_distance": "3.477051969321469",
        "perihelion_time": "2457478.294733705676",
        "mean_anomaly": "344.0402739252756",
        "mean_motion": ".3081341467149087",
        "equinox": "J2000",
        "orbit_class": {
            "orbit_class_type": "APO",
            "orbit_class_description": "Near-Earth asteroid orbits which cross the Earth’s orbit similar to that of 1862 Apollo",
            "orbit_class_range": "a (semi-major axis) > 1.0 AU; q (perihelion) < 1.017 AU"
        }
    },
    "is_sentry_object": false
}